[
    {
        "Altitude(m)": 588279.2339942298,
        "Argument of Periapsis(deg)": -0.03013754771062987,
        "Eccentricity": 0.0,
        "Inclination(deg)": 97.0,
        "Latitude(deg)": -65.36386802451004,
        "Longitude(deg)": -148.5798691496575,
        "Mean Anomaly(deg)": -113.84310897441664,
        "RAAN(deg)": 150.0079294048247,
        "Satellite Name": "Starlink Shell 3 1906",
        "Satellite Number": 1906,
        "Semi-Major Axis(m)": 6938478.169268562,
        "Time(s)": 760
    },
    {
        "Altitude(m)": 588453.8585662069,
        "Argument of Periapsis(deg)": -0.030534094391032898,
        "Eccentricity": 0.0,
        "Inclination(deg)": 97.0,
        "Latitude(deg)": -65.95756706204158,
        "Longitude(deg)": -149.0649060493394,
        "Mean Anomaly(deg)": -113.21763277671167,
        "RAAN(deg)": 150.0080337390987,
        "Satellite Name": "Starlink Shell 3 1906",
        "Satellite Number": 1906,
        "Semi-Major Axis(m)": 6938478.169268562,
        "Time(s)": 770
    },
    {
        "Altitude(m)": 588624.7359166811,
        "Argument of Periapsis(deg)": -0.030930641071435925,
        "Eccentricity": 0.0,
        "Inclination(deg)": 97.0,
        "Latitude(deg)": -66.54986533540304,
        "Longitude(deg)": -149.57095394552513,
        "Mean Anomaly(deg)": -112.59215657900658,
        "RAAN(deg)": 150.0081380733727,
        "Satellite Name": "Starlink Shell 3 1906",
        "Satellite Number": 1906,
        "Semi-Major Axis(m)": 6938478.169268562,
        "Time(s)": 780
    },
    {
        "Altitude(m)": 588791.797108635,
        "Argument of Periapsis(deg)": -0.031327187751838945,
        "Eccentricity": 0.0,
        "Inclination(deg)": 97.0,
        "Latitude(deg)": -67.14066044230614,
        "Longitude(deg)": -150.0995950824145,
        "Mean Anomaly(deg)": -111.96668038130154,
        "RAAN(deg)": 150.00824240764672,
        "Satellite Name": "Starlink Shell 3 1906",
        "Satellite Number": 1906,
        "Semi-Major Axis(m)": 6938478.169268562,
        "Time(s)": 790
    },
    {
        "Altitude(m)": 588954.9747247674,
        "Argument of Periapsis(deg)": -0.031723734432241975,
        "Eccentricity": 0.0,
        "Inclination(deg)": 97.0,
        "Latitude(deg)": -67.72983928062635,
        "Longitude(deg)": -150.65256819792873,
        "Mean Anomaly(deg)": -111.34120418359649,
        "RAAN(deg)": 150.00834674192072,
        "Satellite Name": "Starlink Shell 3 1906",
        "Satellite Number": 1906,
        "Semi-Major Axis(m)": 6938478.169268562,
        "Time(s)": 800
    },
    {
        "Altitude(m)": 589114.2028964324,
        "Argument of Periapsis(deg)": -0.032120281112645,
        "Eccentricity": 0.0,
        "Inclination(deg)": 97.0,
        "Latitude(deg)": -68.31727666767824,
        "Longitude(deg)": -151.2317867984149,
        "Mean Anomaly(deg)": -110.71572798589142,
        "RAAN(deg)": 150.00845107619475,
        "Satellite Name": "Starlink Shell 3 1906",
        "Satellite Number": 1906,
        "Semi-Major Axis(m)": 6938478.169268562,
        "Time(s)": 810
    },
    {
        "Altitude(m)": 589269.4173318868,
        "Argument of Periapsis(deg)": -0.03251682779304802,
        "Eccentricity": 0.0,
        "Inclination(deg)": 97.0,
        "Latitude(deg)": -68.90283374865042,
        "Longitude(deg)": -151.83936003689914,
        "Mean Anomaly(deg)": -110.09025178818644,
        "RAAN(deg)": 150.00855541046874,
        "Satellite Name": "Starlink Shell 3 1906",
        "Satellite Number": 1906,
        "Semi-Major Axis(m)": 6938478.169268562,
        "Time(s)": 820
    },
    {
        "Altitude(m)": 589420.5553438613,
        "Argument of Periapsis(deg)": -0.032913374473451044,
        "Eccentricity": 0.0,
        "Inclination(deg)": 97.0,
        "Latitude(deg)": -69.48635615734176,
        "Longitude(deg)": -152.47761809876303,
        "Mean Anomaly(deg)": -109.46477559048135,
        "RAAN(deg)": 150.00865974474274,
        "Satellite Name": "Starlink Shell 3 1906",
        "Satellite Number": 1906,
        "Semi-Major Axis(m)": 6938478.169268562,
        "Time(s)": 830
    },
    {
        "Altitude(m)": 589567.555876368,
        "Argument of Periapsis(deg)": -0.03330992115385407,
        "Eccentricity": 0.0,
        "Inclination(deg)": 97.0,
        "Latitude(deg)": -70.06767188523472,
        "Longitude(deg)": -153.1491395175009,
        "Mean Anomaly(deg)": -108.83929939277631,
        "RAAN(deg)": 150.00876407901674,
        "Satellite Name": "Starlink Shell 3 1906",
        "Satellite Number": 1906,
        "Semi-Major Axis(m)": 6938478.169268562,
        "Time(s)": 840
    },
    {
        "Altitude(m)": 589710.3595308388,
        "Argument of Periapsis(deg)": -0.0337064678342571,
        "Eccentricity": 0.0,
        "Inclination(deg)": 97.0,
        "Latitude(deg)": -70.64658880637216,
        "Longitude(deg)": -153.85678244503046,
        "Mean Anomaly(deg)": -108.21382319507126,
        "RAAN(deg)": 150.00886841329077,
        "Satellite Name": "Starlink Shell 3 1906",
        "Satellite Number": 1906,
        "Semi-Major Axis(m)": 6938478.169268562,
        "Time(s)": 850
    },
    {
        "Altitude(m)": 589848.9085915001,
        "Argument of Periapsis(deg)": -0.03410301451466012,
        "Eccentricity": 0.0,
        "Inclination(deg)": 97.0,
        "Latitude(deg)": -71.22289179519872,
        "Longitude(deg)": -154.60372213692705,
        "Mean Anomaly(deg)": -107.5883469973662,
        "RAAN(deg)": 150.0089727475648,
        "Satellite Name": "Starlink Shell 3 1906",
        "Satellite Number": 1906,
        "Semi-Major Axis(m)": 6938478.169268562,
        "Time(s)": 860
    },
    {
        "Altitude(m)": 589983.1470500072,
        "Argument of Periapsis(deg)": -0.034499561195063144,
        "Eccentricity": 0.0,
        "Inclination(deg)": 97.0,
        "Latitude(deg)": -71.79633936216648,
        "Longitude(deg)": -155.39349109948844,
        "Mean Anomaly(deg)": -106.9628707996612,
        "RAAN(deg)": 150.0090770818388,
        "Satellite Name": "Starlink Shell 3 1906",
        "Satellite Number": 1906,
        "Semi-Major Axis(m)": 6938478.169268562,
        "Time(s)": 870
    },
    {
        "Altitude(m)": 590113.0206293549,
        "Argument of Periapsis(deg)": -0.03489610787546617,
        "Eccentricity": 0.0,
        "Inclination(deg)": 97.0,
        "Latitude(deg)": -72.36665971706823,
        "Longitude(deg)": -156.23002765840602,
        "Mean Anomaly(deg)": -106.3373946019562,
        "RAAN(deg)": 150.00918141611282,
        "Satellite Name": "Starlink Shell 3 1906",
        "Satellite Number": 1906,
        "Semi-Major Axis(m)": 6938478.169268562,
        "Time(s)": 880
    },
    {
        "Altitude(m)": 590238.4768069909,
        "Argument of Periapsis(deg)": -0.0352926545558692,
        "Eccentricity": 0.0,
        "Inclination(deg)": 97.0,
        "Latitude(deg)": -72.93354615241208,
        "Longitude(deg)": -157.1177295206701,
        "Mean Anomaly(deg)": -105.71191840425112,
        "RAAN(deg)": 150.0092857503868,
        "Satellite Name": "Starlink Shell 3 1906",
        "Satellite Number": 1906,
        "Semi-Major Axis(m)": 6938478.169268562,
        "Time(s)": 890
    },
    {
        "Altitude(m)": 590359.4648371973,
        "Argument of Periapsis(deg)": -0.035689201236272214,
        "Eccentricity": 0.0,
        "Inclination(deg)": 97.0,
        "Latitude(deg)": -73.4966516182307,
        "Longitude(deg)": -158.06151481870683,
        "Mean Anomaly(deg)": -105.08644220654611,
        "RAAN(deg)": 150.0093900846608,
        "Satellite Name": "Starlink Shell 3 1906",
        "Satellite Number": 1906,
        "Semi-Major Axis(m)": 6938478.169268562,
        "Time(s)": 900
    },
    {
        "Altitude(m)": 590475.9357726824,
        "Argument of Periapsis(deg)": -0.036085747916675244,
        "Eccentricity": 0.0,
        "Inclination(deg)": 97.0,
        "Latitude(deg)": -74.0555823352275,
        "Longitude(deg)": -159.06689294763143,
        "Mean Anomaly(deg)": -104.46096600884098,
        "RAAN(deg)": 150.00949441893482,
        "Satellite Name": "Starlink Shell 3 1906",
        "Satellite Number": 1906,
        "Semi-Major Axis(m)": 6938478.169268562,
        "Time(s)": 910
    },
    {
        "Altitude(m)": 590587.8424853886,
        "Argument of Periapsis(deg)": -0.03648229459707827,
        "Eccentricity": 0.0,
        "Inclination(deg)": 97.0,
        "Latitude(deg)": -74.60989026492105,
        "Longitude(deg)": -160.1400428814529,
        "Mean Anomaly(deg)": -103.835489811136,
        "RAAN(deg)": 150.00959875320882,
        "Satellite Name": "Starlink Shell 3 1906",
        "Satellite Number": 1906,
        "Semi-Major Axis(m)": 6938478.169268562,
        "Time(s)": 920
    },
    {
        "Altitude(m)": 590695.1396865287,
        "Argument of Periapsis(deg)": -0.0368788412774813,
        "Eccentricity": 0.0,
        "Inclination(deg)": 97.0,
        "Latitude(deg)": -75.15906422363089,
        "Longitude(deg)": -161.28790097997106,
        "Mean Anomaly(deg)": -103.21001361343099,
        "RAAN(deg)": 150.00970308748285,
        "Satellite Name": "Starlink Shell 3 1906",
        "Satellite Number": 1906,
        "Semi-Major Axis(m)": 6938478.169268562,
        "Time(s)": 930
    },
    {
        "Altitude(m)": 590797.7839458071,
        "Argument of Periapsis(deg)": -0.037275387957884314,
        "Eccentricity": 0.0,
        "Inclination(deg)": 97.0,
        "Latitude(deg)": -75.70251939260606,
        "Longitude(deg)": -162.51825988344427,
        "Mean Anomaly(deg)": -102.58453741572589,
        "RAAN(deg)": 150.00980742175685,
        "Satellite Name": "Starlink Shell 3 1906",
        "Satellite Number": 1906,
        "Semi-Major Axis(m)": 6938478.169268562,
        "Time(s)": 940
    }
]